#dP2020  6 25  0  0  0.00000000     289 d+D   IGb14 FIT AIUB
## 2111 345600.00000000   300.00000000 59025 0.0000000000000
+   90   G01G02G03G04G05G06G07G08G09G10G11G12G13G14G15G16G17
+        G18G19G20G21G22G24G25G26G27G28G29G30G31G32R01R02R03
+        R04R05R07R08R09R11R12R13R14R15R16R17R18R19R20R21R23
+        R24R26E01E02E03E04E05E07E08E09E11E12E13E14E15E18E19
+        E21E24E25E26E27E30E31E33E36C06C07C08C09C10C11C12C13
+        C14C16J01J02J03  0  0  0  0  0  0  0  0  0  0  0  0
++         5  5  5  5  5  5  5  5  5  5  5  5  5  5  5  5  5
++         5  5  5  5  5  5  5  5  5  5  5  5  5  5  5  5  5
++         5  5  5  5  5  5  5  5  5  5  5  5  5  5  5  5  5
++         5  5  5  5  5  5  5  5  5  5  5  5  5  5  5  5  5
++         5  5  5  5  5  5  5  5  5  5  6  5  5  6  5  5  5
++         5  5  5  5  5  0  0  0  0  0  0  0  0  0  0  0  0
%c M  cc GPS ccc cccc cccc cccc cccc ccccc ccccc ccccc ccccc
%c cc cc ccc ccc cccc cccc cccc cccc ccccc ccccc ccccc ccccc
%f  1.2500000  1.025000000  0.00000000000  0.000000000000000
%f  0.0000000  0.000000000  0.00000000000  0.000000000000000
%i    0    0    0    0      0      0      0      0         0
%i    0    0    0    0      0      0      0      0         0
/* CODE MGEX orbits and clocks                                                  
/* of DOY 20177                                                                 
/*                                                                              
/* PCV:IGS14      OL/AL:FES2014b NONE     YN ORB:CoN CLK:CoN                    
*  2020  6 25  7 40  0.00000000
PG01 -21476.441240 -15228.871832  -4920.707706     16.141537
PG02   3324.747708  17228.495970  20594.474185   -477.486384
PG03 -12072.055337 -16961.440743  16488.953564   -219.852999
PG04 -17488.642746  -5386.815098  19273.991503   -106.811629
PG05   1799.935931  26388.250096    139.761894    -15.340462
PG06  -9657.638388  11542.448971  21937.903811   -293.936292
PG07 -23845.877537  -3734.409806 -11307.667822   -312.455254
PG08  -7163.907962 -13240.972049 -21861.650896    -38.742356
PG09 -23253.830050   5307.152373  11654.737405   -242.464473
PG10  11886.687219 -15123.751948 -18120.748159   -381.342906
PG11 -15925.706039 -13297.291334 -16899.235838   -239.070728
PG12  10610.702223  17726.555978  16543.000862    101.931918
PG13  -2166.736310  16697.572103 -20634.743453     21.242743
PG14  15612.907274 -17816.618509  12170.753881     -3.378912
PG15   9663.220761  12847.019755 -21455.874758   -221.906015
PG16   -526.245268 -26197.009058  -2683.181908   -174.723012
PG17 -21455.358537  15135.095193   4259.486993    286.094425
PG18  23484.200346   3622.758038 -11906.502418    229.620802
PG19 -17485.236938  16660.956254  10708.278107   -140.587263
PG20  15536.420239  -2964.674800 -21413.081411    527.443297
PG21  16742.171919  -7001.350453 -18563.492048     15.880048
PG22 -10461.982546 -22387.968373  10140.173419   -776.068083
PG24  21032.768339  15077.831125  -6979.285243    -14.799661
PG25  14661.967318   7165.815358  20770.231703     16.503991
PG26   5723.395156 -23630.830485  10384.566173    231.730795
PG27   4328.172738 -17970.134505 -19086.385076   -329.479178
PG28 -12084.767904  16314.601501 -16622.689447    705.550448
PG29  21914.465026   -536.058509  14972.318789   -135.749087
PG30 -17952.524439   5627.719493 -18781.828702   -248.878627
PG31   8760.548713 -12573.487845  21665.151014    -51.400032
PG32  20207.129592 -16587.234859   4302.612432    306.143571
PR01 -12231.729655  22316.781509   1602.337265     63.570693
PR02   -351.705181  18320.801372 -17727.457623    433.226657
PR03  10666.745061   3188.876269 -22901.980680     17.365968
PR04  15322.534757 -13717.184079 -15059.211012     53.967176
PR05  11470.484589 -22734.746639   1329.428374     52.914108
PR07 -11015.744485  -2539.233238  22909.309403    -37.901751
PR08 -15441.715875  13617.402379  15125.815486    -53.084438
PR09 -13645.052312 -21599.067539     22.887501    139.909430
PR11 -11302.577224   2710.100971 -22694.259736    -28.322330
PR12     73.557043  17027.727782 -18970.472479    141.865041
PR13  11864.140902  22185.439618  -4200.173658    -40.439174
PR14  16453.372946  14286.348475  13258.436857     52.634922
PR15  11597.320377  -1767.828740  22671.685670    106.886808
PR16   -653.535090 -17388.548279  18581.282729     -4.376762
PR17  22789.729331   4206.334942  10703.411269    335.905687
PR18  24470.492494  -3434.000644  -6210.840864     40.021365
PR19  13802.597283  -8770.978999 -19583.034709    -99.508573
PR20  -7509.272085  -9915.999514 -22276.290073   -415.158193
PR21 -23206.599567  -3816.393820  -9850.954730   -133.768193
PR23  -6540.959544  10202.277859  22431.311709    314.422081
PR24   8325.327521  10206.654345  21856.721577      3.904698
PR26  -2275.715120 -10348.869456 -23194.541595   -392.037406
PE01 -17858.585036 -12117.194526 -20259.565414   -884.927859
PE02  17865.862428  12017.954408  20313.426548    142.834729
PE03  20023.764466   1116.444379 -21770.701741   -313.614877
PE04 -23189.706079  16451.393426   8235.379827   -552.868955
PE05   5059.718234  18277.454792 -22717.297408   -368.688360
PE07  12725.996985 -24629.426255  10406.538027   -400.301746
PE08  23001.310146 -16818.261302  -8040.460259   6158.848480
PE09 -12537.049247  24649.672354 -10517.642814   6017.354260
PE11  -6001.732845  15287.765213  24615.715234   3682.608560
PE12 -24702.411303   5087.454183  15507.020257   5738.110270
PE13   6173.596208 -15172.674145 -24653.713881    401.853340
PE14   7836.058879  12625.684780  18059.637497  -1061.722540
PE15  24523.012937  -5285.176517 -15705.965279    862.292707
PE18  -9108.770522 -18591.876244 -25154.163324  -1163.383280
PE19 -18787.017168  -3094.311784  22674.171039     11.720525
PE21 -11631.012179 -26810.317192  -4725.393750   -606.513211
PE24  -1925.135335  25990.382919 -14057.063495   5384.484220
PE25  11559.649005  26855.789876   4602.800768   -512.666709
PE26 -16102.527180 -16283.009539 -18755.372137   3033.435540
PE27   1559.656481 -26119.374458  13844.360527    191.125496
PE30  14036.839497  -9610.816805  24215.150005   3798.571190
PE31 -13761.400646  10087.681458 -24179.056120   -472.993040
PE33 -28476.292647  -7711.171657  -2469.540105   -465.686012
PE36  15790.430241  16151.202314  19126.804943    542.470101
PC06 -24801.635757  27872.584841 -19651.037652    762.963900
PC07 -11915.248193  37008.821192 -15479.221051     18.273603
PC08  -8226.334396  20242.366077  36169.551449   -333.195073
PC09  -9025.568630  27657.360672 -30381.633606    633.254599
PC10  -1068.684990  41826.368079  -2290.956354   -253.335729
PC11 -11631.309753 -12420.529100 -22054.184768   -450.292704
PC12   9478.327457 -16010.318434 -20781.002412    411.372692
PC13   6496.697568  27765.869797  31235.601904    508.958208
PC14  -5531.317311 -21687.148852  16738.734047    578.997816
PC16 -21859.736545  28419.912070 -22258.021657   -610.652151
PJ01 -31320.576756  26095.095389  15645.535150   -282.023997
PJ02 -19957.431534  21980.307269 -25444.323777     -0.732248
PJ03 -29477.908713  28325.852365  15759.727906     -4.503464
EOF
